STARLINK-35524          
1 65914U 25225E   25303.83336806 -.01991864  00000+0 -27929-1 0  9990
2 65914  53.1590  51.5814 0001300  69.8857  92.9342 15.59637483  4522
STARLINK-35539          
1 65915U 25225F   25303.83336806 -.01973271  00000+0 -38906-1 0  9990
2 65915  53.1598  51.8973 0000922  60.4226 305.6157 15.49847089  4472
STARLINK-35521          
1 65916U 25225G   25303.83336806 -.01996175  00000+0 -27998-1 0  9998
2 65916  53.1597  51.5725 0001253  61.8013 104.8541 15.59638484  4521
STARLINK-35478          
1 65917U 25225H   25303.83336806 -.01993863  00000+0 -27963-1 0  9992
2 65917  53.1595  51.5645 0001345  67.7994 102.6921 15.59635661  4472
STARLINK-35516          
1 65918U 25225J   25303.83336806 -.01993883  00000+0 -27964-1 0  9996
2 65918  53.1593  51.5686 0001292  55.5853 112.9877 15.59635876  4535
STARLINK-35519          
1 65919U 25225K   25303.83336806 -.01997300  00000+0 -28015-1 0  9993
2 65919  53.1591  51.5611 0001261  61.8547 110.5514 15.59638896  4535
STARLINK-33902          
1 65920U 25225L   25303.83336806 -.01992315  00000+0 -27939-1 0  9990
2 65920  53.1594  51.5564 0001261  60.3110 114.0108 15.59636100  4520
STARLINK-35530          
1 65921U 25225M   25303.83336806 -.01997004  00000+0 -28011-1 0  9993
2 65921  53.1590  51.5531 0001236  68.4059 107.8332 15.59639048  4482
STARLINK-35544          
1 65922U 25225N   25303.83336806 -.01994674  00000+0 -27977-1 0  9994
2 65922  53.1595  51.5486 0001300  67.7048 110.4553 15.59635423  4533
STARLINK-35484          
1 65923U 25225P   25303.83336806 -.01999245  00000+0 -28047-1 0  9993
2 65923  53.1591  51.5448 0001230  63.9125 116.1634 15.59638630  4530
STARLINK-34994          
1 65924U 25225Q   25303.83336806 -.01994548  00000+0 -27975-1 0  9994
2 65924  53.1591  51.5407 0001270  65.4536 116.5403 15.59635279  4537
STARLINK-35458          
1 65925U 25225R   25303.83336806 -.01988402  00000+0 -27879-1 0  9990
2 65925  53.1590  51.5325 0001262  60.7852 125.0385 15.59633469  4539
