CCSDS_OMM_VERS = 2.0
CREATION_DATE  = 
ORIGINATOR     = 

OBJECT_NAME    = STARLINK-35524
OBJECT_ID      = 2025-225E
CENTER_NAME    = EARTH
REF_FRAME      = TEME
TIME_SYSTEM    = UTC
MEAN_ELEMENT_THEORY = SGP/SGP4

EPOCH          = 2025-10-30T20:00:03.000384
MEAN_MOTION    = 15.59637483
ECCENTRICITY   = .00013
INCLINATION    = 53.1590
RA_OF_ASC_NODE = 51.5814
ARG_OF_PERICENTER = 69.8857
MEAN_ANOMALY   = 92.9342

EPHEMERIS_TYPE = 0
CLASSIFICATION_TYPE = U
NORAD_CAT_ID   = 65914
ELEMENT_SET_NO = 999
REV_AT_EPOCH   = 452
BSTAR          = -.27929E-1
MEAN_MOTION_DOT = -.1991864E-1
MEAN_MOTION_DDOT = 0

CCSDS_OMM_VERS = 2.0
CREATION_DATE  = 
ORIGINATOR     = 

OBJECT_NAME    = STARLINK-35539
OBJECT_ID      = 2025-225F
CENTER_NAME    = EARTH
REF_FRAME      = TEME
TIME_SYSTEM    = UTC
MEAN_ELEMENT_THEORY = SGP/SGP4

EPOCH          = 2025-10-30T20:00:03.000384
MEAN_MOTION    = 15.49847089
ECCENTRICITY   = .0000922
INCLINATION    = 53.1598
RA_OF_ASC_NODE = 51.8973
ARG_OF_PERICENTER = 60.4226
MEAN_ANOMALY   = 305.6157

EPHEMERIS_TYPE = 0
CLASSIFICATION_TYPE = U
NORAD_CAT_ID   = 65915
ELEMENT_SET_NO = 999
REV_AT_EPOCH   = 447
BSTAR          = -.38906E-1
MEAN_MOTION_DOT = -.1973271E-1
MEAN_MOTION_DDOT = 0

CCSDS_OMM_VERS = 2.0
CREATION_DATE  = 
ORIGINATOR     = 

OBJECT_NAME    = STARLINK-35521
OBJECT_ID      = 2025-225G
CENTER_NAME    = EARTH
REF_FRAME      = TEME
TIME_SYSTEM    = UTC
MEAN_ELEMENT_THEORY = SGP/SGP4

EPOCH          = 2025-10-30T20:00:03.000384
MEAN_MOTION    = 15.59638484
ECCENTRICITY   = .0001253
INCLINATION    = 53.1597
RA_OF_ASC_NODE = 51.5725
ARG_OF_PERICENTER = 61.8013
MEAN_ANOMALY   = 104.8541

EPHEMERIS_TYPE = 0
CLASSIFICATION_TYPE = U
NORAD_CAT_ID   = 65916
ELEMENT_SET_NO = 999
REV_AT_EPOCH   = 452
BSTAR          = -.27998E-1
MEAN_MOTION_DOT = -.1996175E-1
MEAN_MOTION_DDOT = 0

CCSDS_OMM_VERS = 2.0
CREATION_DATE  = 
ORIGINATOR     = 

OBJECT_NAME    = STARLINK-35478
OBJECT_ID      = 2025-225H
CENTER_NAME    = EARTH
REF_FRAME      = TEME
TIME_SYSTEM    = UTC
MEAN_ELEMENT_THEORY = SGP/SGP4

EPOCH          = 2025-10-30T20:00:03.000384
MEAN_MOTION    = 15.59635661
ECCENTRICITY   = .0001345
INCLINATION    = 53.1595
RA_OF_ASC_NODE = 51.5645
ARG_OF_PERICENTER = 67.7994
MEAN_ANOMALY   = 102.6921

EPHEMERIS_TYPE = 0
CLASSIFICATION_TYPE = U
NORAD_CAT_ID   = 65917
ELEMENT_SET_NO = 999
REV_AT_EPOCH   = 447
BSTAR          = -.27963E-1
MEAN_MOTION_DOT = -.1993863E-1
MEAN_MOTION_DDOT = 0

CCSDS_OMM_VERS = 2.0
CREATION_DATE  = 
ORIGINATOR     = 

OBJECT_NAME    = STARLINK-35516
OBJECT_ID      = 2025-225J
CENTER_NAME    = EARTH
REF_FRAME      = TEME
TIME_SYSTEM    = UTC
MEAN_ELEMENT_THEORY = SGP/SGP4

EPOCH          = 2025-10-30T20:00:03.000384
MEAN_MOTION    = 15.59635876
ECCENTRICITY   = .0001292
INCLINATION    = 53.1593
RA_OF_ASC_NODE = 51.5686
ARG_OF_PERICENTER = 55.5853
MEAN_ANOMALY   = 112.9877

EPHEMERIS_TYPE = 0
CLASSIFICATION_TYPE = U
NORAD_CAT_ID   = 65918
ELEMENT_SET_NO = 999
REV_AT_EPOCH   = 453
BSTAR          = -.27964E-1
MEAN_MOTION_DOT = -.1993883E-1
MEAN_MOTION_DDOT = 0

CCSDS_OMM_VERS = 2.0
CREATION_DATE  = 
ORIGINATOR     = 

OBJECT_NAME    = STARLINK-35519
OBJECT_ID      = 2025-225K
CENTER_NAME    = EARTH
REF_FRAME      = TEME
TIME_SYSTEM    = UTC
MEAN_ELEMENT_THEORY = SGP/SGP4

EPOCH          = 2025-10-30T20:00:03.000384
MEAN_MOTION    = 15.59638896
ECCENTRICITY   = .0001261
INCLINATION    = 53.1591
RA_OF_ASC_NODE = 51.5611
ARG_OF_PERICENTER = 61.8547
MEAN_ANOMALY   = 110.5514

EPHEMERIS_TYPE = 0
CLASSIFICATION_TYPE = U
NORAD_CAT_ID   = 65919
ELEMENT_SET_NO = 999
REV_AT_EPOCH   = 453
BSTAR          = -.28015E-1
MEAN_MOTION_DOT = -.19973E-1
MEAN_MOTION_DDOT = 0

CCSDS_OMM_VERS = 2.0
CREATION_DATE  = 
ORIGINATOR     = 

OBJECT_NAME    = STARLINK-33902
OBJECT_ID      = 2025-225L
CENTER_NAME    = EARTH
REF_FRAME      = TEME
TIME_SYSTEM    = UTC
MEAN_ELEMENT_THEORY = SGP/SGP4

EPOCH          = 2025-10-30T20:00:03.000384
MEAN_MOTION    = 15.59636100
ECCENTRICITY   = .0001261
INCLINATION    = 53.1594
RA_OF_ASC_NODE = 51.5564
ARG_OF_PERICENTER = 60.3110
MEAN_ANOMALY   = 114.0108

EPHEMERIS_TYPE = 0
CLASSIFICATION_TYPE = U
NORAD_CAT_ID   = 65920
ELEMENT_SET_NO = 999
REV_AT_EPOCH   = 452
BSTAR          = -.27939E-1
MEAN_MOTION_DOT = -.1992315E-1
MEAN_MOTION_DDOT = 0

CCSDS_OMM_VERS = 2.0
CREATION_DATE  = 
ORIGINATOR     = 

OBJECT_NAME    = STARLINK-35530
OBJECT_ID      = 2025-225M
CENTER_NAME    = EARTH
REF_FRAME      = TEME
TIME_SYSTEM    = UTC
MEAN_ELEMENT_THEORY = SGP/SGP4

EPOCH          = 2025-10-30T20:00:03.000384
MEAN_MOTION    = 15.59639048
ECCENTRICITY   = .0001236
INCLINATION    = 53.1590
RA_OF_ASC_NODE = 51.5531
ARG_OF_PERICENTER = 68.4059
MEAN_ANOMALY   = 107.8332

EPHEMERIS_TYPE = 0
CLASSIFICATION_TYPE = U
NORAD_CAT_ID   = 65921
ELEMENT_SET_NO = 999
REV_AT_EPOCH   = 448
BSTAR          = -.28011E-1
MEAN_MOTION_DOT = -.1997004E-1
MEAN_MOTION_DDOT = 0

CCSDS_OMM_VERS = 2.0
CREATION_DATE  = 
ORIGINATOR     = 

OBJECT_NAME    = STARLINK-35544
OBJECT_ID      = 2025-225N
CENTER_NAME    = EARTH
REF_FRAME      = TEME
TIME_SYSTEM    = UTC
MEAN_ELEMENT_THEORY = SGP/SGP4

EPOCH          = 2025-10-30T20:00:03.000384
MEAN_MOTION    = 15.59635423
ECCENTRICITY   = .00013
INCLINATION    = 53.1595
RA_OF_ASC_NODE = 51.5486
ARG_OF_PERICENTER = 67.7048
MEAN_ANOMALY   = 110.4553

EPHEMERIS_TYPE = 0
CLASSIFICATION_TYPE = U
NORAD_CAT_ID   = 65922
ELEMENT_SET_NO = 999
REV_AT_EPOCH   = 453
BSTAR          = -.27977E-1
MEAN_MOTION_DOT = -.1994674E-1
MEAN_MOTION_DDOT = 0

CCSDS_OMM_VERS = 2.0
CREATION_DATE  = 
ORIGINATOR     = 

OBJECT_NAME    = STARLINK-35484
OBJECT_ID      = 2025-225P
CENTER_NAME    = EARTH
REF_FRAME      = TEME
TIME_SYSTEM    = UTC
MEAN_ELEMENT_THEORY = SGP/SGP4

EPOCH          = 2025-10-30T20:00:03.000384
MEAN_MOTION    = 15.59638630
ECCENTRICITY   = .000123
INCLINATION    = 53.1591
RA_OF_ASC_NODE = 51.5448
ARG_OF_PERICENTER = 63.9125
MEAN_ANOMALY   = 116.1634

EPHEMERIS_TYPE = 0
CLASSIFICATION_TYPE = U
NORAD_CAT_ID   = 65923
ELEMENT_SET_NO = 999
REV_AT_EPOCH   = 453
BSTAR          = -.28047E-1
MEAN_MOTION_DOT = -.1999245E-1
MEAN_MOTION_DDOT = 0

CCSDS_OMM_VERS = 2.0
CREATION_DATE  = 
ORIGINATOR     = 

OBJECT_NAME    = STARLINK-34994
OBJECT_ID      = 2025-225Q
CENTER_NAME    = EARTH
REF_FRAME      = TEME
TIME_SYSTEM    = UTC
MEAN_ELEMENT_THEORY = SGP/SGP4

EPOCH          = 2025-10-30T20:00:03.000384
MEAN_MOTION    = 15.59635279
ECCENTRICITY   = .000127
INCLINATION    = 53.1591
RA_OF_ASC_NODE = 51.5407
ARG_OF_PERICENTER = 65.4536
MEAN_ANOMALY   = 116.5403

EPHEMERIS_TYPE = 0
CLASSIFICATION_TYPE = U
NORAD_CAT_ID   = 65924
ELEMENT_SET_NO = 999
REV_AT_EPOCH   = 453
BSTAR          = -.27975E-1
MEAN_MOTION_DOT = -.1994548E-1
MEAN_MOTION_DDOT = 0

CCSDS_OMM_VERS = 2.0
CREATION_DATE  = 
ORIGINATOR     = 

OBJECT_NAME    = STARLINK-35458
OBJECT_ID      = 2025-225R
CENTER_NAME    = EARTH
REF_FRAME      = TEME
TIME_SYSTEM    = UTC
MEAN_ELEMENT_THEORY = SGP/SGP4

EPOCH          = 2025-10-30T20:00:03.000384
MEAN_MOTION    = 15.59633469
ECCENTRICITY   = .0001262
INCLINATION    = 53.1590
RA_OF_ASC_NODE = 51.5325
ARG_OF_PERICENTER = 60.7852
MEAN_ANOMALY   = 125.0385

EPHEMERIS_TYPE = 0
CLASSIFICATION_TYPE = U
NORAD_CAT_ID   = 65925
ELEMENT_SET_NO = 999
REV_AT_EPOCH   = 453
BSTAR          = -.27879E-1
MEAN_MOTION_DOT = -.1988402E-1
MEAN_MOTION_DDOT = 0

